CCSDS_OMM_VERS = 2.0
CREATION_DATE  = 
ORIGINATOR     = 

OBJECT_NAME    = ISS OBJECT XY
OBJECT_ID      = 1998-067XY
CENTER_NAME    = EARTH
REF_FRAME      = TEME
TIME_SYSTEM    = UTC
MEAN_ELEMENT_THEORY = SGP/SGP4

EPOCH          = 2026-03-14T22:45:17.273376
MEAN_MOTION    = 15.64801890
ECCENTRICITY   = .00034365
INCLINATION    = 51.6268
RA_OF_ASC_NODE = 40.5165
ARG_OF_PERICENTER = 120.1038
MEAN_ANOMALY   = 240.0298

EPHEMERIS_TYPE = 0
CLASSIFICATION_TYPE = U
NORAD_CAT_ID   = 66912
ELEMENT_SET_NO = 999
REV_AT_EPOCH   = 1597
BSTAR          = .11443978E-2
MEAN_MOTION_DOT = .114837E-2
MEAN_MOTION_DDOT = 0

CCSDS_OMM_VERS = 2.0
CREATION_DATE  = 
ORIGINATOR     = 

OBJECT_NAME    = KNACKSAT-2
OBJECT_ID      = 1998-067XZ
CENTER_NAME    = EARTH
REF_FRAME      = TEME
TIME_SYSTEM    = UTC
MEAN_ELEMENT_THEORY = SGP/SGP4

EPOCH          = 2026-03-14T22:37:57.939744
MEAN_MOTION    = 15.52300937
ECCENTRICITY   = .00094603
INCLINATION    = 51.6311
RA_OF_ASC_NODE = 45.7376
ARG_OF_PERICENTER = 204.5444
MEAN_ANOMALY   = 155.5097

EPHEMERIS_TYPE = 0
CLASSIFICATION_TYPE = U
NORAD_CAT_ID   = 67683
ELEMENT_SET_NO = 999
REV_AT_EPOCH   = 560
BSTAR          = .81032224E-3
MEAN_MOTION_DOT = .50134E-3
MEAN_MOTION_DDOT = 0

CCSDS_OMM_VERS = 2.0
CREATION_DATE  = 
ORIGINATOR     = 

OBJECT_NAME    = GXIBA-1
OBJECT_ID      = 1998-067YA
CENTER_NAME    = EARTH
REF_FRAME      = TEME
TIME_SYSTEM    = UTC
MEAN_ELEMENT_THEORY = SGP/SGP4

EPOCH          = 2026-03-14T04:47:37.477248
MEAN_MOTION    = 15.55114110
ECCENTRICITY   = .00116291
INCLINATION    = 51.6308
RA_OF_ASC_NODE = 49.0237
ARG_OF_PERICENTER = 191.1014
MEAN_ANOMALY   = 168.9722

EPHEMERIS_TYPE = 0
CLASSIFICATION_TYPE = U
NORAD_CAT_ID   = 67684
ELEMENT_SET_NO = 999
REV_AT_EPOCH   = 549
BSTAR          = .14476585E-2
MEAN_MOTION_DOT = .100394E-2
MEAN_MOTION_DDOT = 0

CCSDS_OMM_VERS = 2.0
CREATION_DATE  = 
ORIGINATOR     = 

OBJECT_NAME    = CORAL
OBJECT_ID      = 1998-067YB
CENTER_NAME    = EARTH
REF_FRAME      = TEME
TIME_SYSTEM    = UTC
MEAN_ELEMENT_THEORY = SGP/SGP4

EPOCH          = 2026-03-14T22:29:40.938432
MEAN_MOTION    = 15.52714905
ECCENTRICITY   = .00115172
INCLINATION    = 51.6310
RA_OF_ASC_NODE = 45.6991
ARG_OF_PERICENTER = 200.8992
MEAN_ANOMALY   = 159.1529

EPHEMERIS_TYPE = 0
CLASSIFICATION_TYPE = U
NORAD_CAT_ID   = 67685
ELEMENT_SET_NO = 999
REV_AT_EPOCH   = 560
BSTAR          = .87389849E-3
MEAN_MOTION_DOT = .55005E-3
MEAN_MOTION_DDOT = 0

CCSDS_OMM_VERS = 2.0
CREATION_DATE  = 
ORIGINATOR     = 

OBJECT_NAME    = ISS OBJECT YC
OBJECT_ID      = 1998-067YC
CENTER_NAME    = EARTH
REF_FRAME      = TEME
TIME_SYSTEM    = UTC
MEAN_ELEMENT_THEORY = SGP/SGP4

EPOCH          = 2026-03-14T22:18:50.851008
MEAN_MOTION    = 15.53369363
ECCENTRICITY   = .00082719
INCLINATION    = 51.6315
RA_OF_ASC_NODE = 45.6515
ARG_OF_PERICENTER = 169.8517
MEAN_ANOMALY   = 190.2642

EPHEMERIS_TYPE = 0
CLASSIFICATION_TYPE = U
NORAD_CAT_ID   = 67686
ELEMENT_SET_NO = 999
REV_AT_EPOCH   = 560
BSTAR          = .10276165E-2
MEAN_MOTION_DOT = .66333E-3
MEAN_MOTION_DDOT = 0

CCSDS_OMM_VERS = 2.0
CREATION_DATE  = 
ORIGINATOR     = 

OBJECT_NAME    = LEOPARD
OBJECT_ID      = 1998-067YD
CENTER_NAME    = EARTH
REF_FRAME      = TEME
TIME_SYSTEM    = UTC
MEAN_ELEMENT_THEORY = SGP/SGP4

EPOCH          = 2026-03-14T22:33:40.682880
MEAN_MOTION    = 15.52499529
ECCENTRICITY   = .00081433
INCLINATION    = 51.6312
RA_OF_ASC_NODE = 45.7201
ARG_OF_PERICENTER = 173.3259
MEAN_ANOMALY   = 186.7840

EPHEMERIS_TYPE = 0
CLASSIFICATION_TYPE = U
NORAD_CAT_ID   = 67687
ELEMENT_SET_NO = 999
REV_AT_EPOCH   = 552
BSTAR          = .82288465E-3
MEAN_MOTION_DOT = .5127E-3
MEAN_MOTION_DDOT = 0

CCSDS_OMM_VERS = 2.0
CREATION_DATE  = 
ORIGINATOR     = 

OBJECT_NAME    = ISS OBJECT YE
OBJECT_ID      = 1998-067YE
CENTER_NAME    = EARTH
REF_FRAME      = TEME
TIME_SYSTEM    = UTC
MEAN_ELEMENT_THEORY = SGP/SGP4

EPOCH          = 2026-03-14T22:23:46.787424
MEAN_MOTION    = 15.53068160
ECCENTRICITY   = .00081064
INCLINATION    = 51.6312
RA_OF_ASC_NODE = 45.6744
ARG_OF_PERICENTER = 170.5287
MEAN_ANOMALY   = 189.5858

EPHEMERIS_TYPE = 0
CLASSIFICATION_TYPE = U
NORAD_CAT_ID   = 67688
ELEMENT_SET_NO = 999
REV_AT_EPOCH   = 552
BSTAR          = .95461091E-3
MEAN_MOTION_DOT = .60869E-3
MEAN_MOTION_DDOT = 0

CCSDS_OMM_VERS = 2.0
CREATION_DATE  = 
ORIGINATOR     = 

OBJECT_NAME    = CREW DRAGON 12
OBJECT_ID      = 2026-031A
CENTER_NAME    = EARTH
REF_FRAME      = TEME
TIME_SYSTEM    = UTC
MEAN_ELEMENT_THEORY = SGP/SGP4

EPOCH          = 2026-03-14T19:19:28.771104
MEAN_MOTION    = 15.48281436
ECCENTRICITY   = .00063712
INCLINATION    = 51.6329
RA_OF_ASC_NODE = 47.0659
ARG_OF_PERICENTER = 190.9724
MEAN_ANOMALY   = 169.1126

EPHEMERIS_TYPE = 0
CLASSIFICATION_TYPE = U
NORAD_CAT_ID   = 67796
ELEMENT_SET_NO = 999
REV_AT_EPOCH   = 55702
BSTAR          = .20105253E-3
MEAN_MOTION_DOT = .10373E-3
MEAN_MOTION_DDOT = 0

