{"fetched_at": "2026-03-15T06:18:37.907638+00:00", "count": 376, "satellites": [ {"name": "ISS OBJECT XY", "tle1": "1 66912U 98067XY  26073.94811659  .00114837  00000+0  11444-2 0  9994", "tle2": "2 66912  51.6268  40.5165 0003436 120.1038 240.0298 15.64801890 15975", "norad_id": 66912, "group": "stations", "highlight": true}, {"name": "KNACKSAT-2", "tle1": "1 67683U 98067XZ  26073.94303171  .00050134  00000+0  81032-3 0  9995", "tle2": "2 67683  51.6311  45.7376 0009460 204.5444 155.5097 15.52300937  5601", "norad_id": 67683, "group": "stations", "highlight": false}, {"name": "GXIBA-1", "tle1": "1 67684U 98067YA  26073.19973932  .00100394  00000+0  14477-2 0  9993", "tle2": "2 67684  51.6308  49.0237 0011629 191.1014 168.9722 15.55114110  5494", "norad_id": 67684, "group": "stations", "highlight": false}, {"name": "CORAL", "tle1": "1 67685U 98067YB  26073.93727938  .00055005  00000+0  87390-3 0  9992", "tle2": "2 67685  51.6310  45.6991 0011517 200.8992 159.1529 15.52714905  5601", "norad_id": 67685, "group": "stations", "highlight": false}, {"name": "ISS OBJECT YC", "tle1": "1 67686U 98067YC  26073.92975522  .00066333  00000+0  10276-2 0  9990", "tle2": "2 67686  51.6315  45.6515 0008271 169.8517 190.2642 15.53369363  5606", "norad_id": 67686, "group": "stations", "highlight": true}, {"name": "LEOPARD", "tle1": "1 67687U 98067YD  26073.94005420  .00051270  00000+0  82288-3 0  9991", "tle2": "2 67687  51.6312  45.7201 0008143 173.3259 186.7840 15.52499529  5526", "norad_id": 67687, "group": "stations", "highlight": false}, {"name": "ISS OBJECT YE", "tle1": "1 67688U 98067YE  26073.93318041  .00060869  00000+0  95461-3 0  9998", "tle2": "2 67688  51.6312  45.6744 0008106 170.5287 189.5858 15.53068160  5521", "norad_id": 67688, "group": "stations", "highlight": true}, {"name": "CREW DRAGON 12", "tle1": "1 67796U 26031A   26073.80519411  .00010373  00000+0  20105-3 0  9998", "tle2": "2 67796  51.6329  47.0659 0006371 190.9724 169.1126 15.48281436557020", "norad_id": 67796, "group": "stations", "highlight": false}]}